STARLINK-31632          
1 59326U 24057G   26068.39265222 -.00003432  00000+0 -11518-3 0  9998
2 59326  42.9986 199.9940 0001386 285.8027  74.2672 15.27596218109662
FLOCK 4G-10             
1 62670U 25009BP  26068.70827885  .00013952  00000+0  52624-3 0  9995
2 62670  97.3967 150.5883 0003469 341.4844  18.6269 15.27155944121340
