[{"OBJECT_NAME":"STARLINK-31632","OBJECT_ID":"2024-057G","EPOCH":"2026-03-09T09:25:25.151808","MEAN_MOTION":15.27596218,"ECCENTRICITY":0.00013869,"INCLINATION":42.9986,"RA_OF_ASC_NODE":199.994,"ARG_OF_PERICENTER":285.8027,"MEAN_ANOMALY":74.2672,"EPHEMERIS_TYPE":0,"CLASSIFICATION_TYPE":"U","NORAD_CAT_ID":59326,"ELEMENT_SET_NO":999,"REV_AT_EPOCH":10966,"BSTAR":-0.00011518227,"MEAN_MOTION_DOT":-3.432e-5,"MEAN_MOTION_DDOT":0},{"OBJECT_NAME":"FLOCK 4G-10","OBJECT_ID":"2025-009BP","EPOCH":"2026-03-09T16:59:55.292640","MEAN_MOTION":15.27155944,"ECCENTRICITY":0.00034694,"INCLINATION":97.3967,"RA_OF_ASC_NODE":150.5883,"ARG_OF_PERICENTER":341.4844,"MEAN_ANOMALY":18.6269,"EPHEMERIS_TYPE":0,"CLASSIFICATION_TYPE":"U","NORAD_CAT_ID":62670,"ELEMENT_SET_NO":999,"REV_AT_EPOCH":12134,"BSTAR":0.00052624432,"MEAN_MOTION_DOT":0.00013952,"MEAN_MOTION_DDOT":0}]
